[{"OBJECT_NAME":"STARLINK-30810","OBJECT_ID":"2023-167D","EPOCH":"2026-03-08T06:33:35.305920","MEAN_MOTION":15.2674031,"ECCENTRICITY":5.138e-5,"INCLINATION":42.9955,"RA_OF_ASC_NODE":150.9596,"ARG_OF_PERICENTER":285.2891,"MEAN_ANOMALY":74.7904,"EPHEMERIS_TYPE":0,"CLASSIFICATION_TYPE":"U","NORAD_CAT_ID":58178,"ELEMENT_SET_NO":999,"REV_AT_EPOCH":13077,"BSTAR":-7.0786315e-5,"MEAN_MOTION_DOT":-2.157e-5,"MEAN_MOTION_DDOT":0},{"OBJECT_NAME":"YAOGAN-43 01G","OBJECT_ID":"2024-148G","EPOCH":"2026-03-09T10:38:37.087584","MEAN_MOTION":15.28332833,"ECCENTRICITY":0.00073829,"INCLINATION":35.0006,"RA_OF_ASC_NODE":62.0013,"ARG_OF_PERICENTER":306.3543,"MEAN_ANOMALY":53.6492,"EPHEMERIS_TYPE":0,"CLASSIFICATION_TYPE":"U","NORAD_CAT_ID":60464,"ELEMENT_SET_NO":999,"REV_AT_EPOCH":8700,"BSTAR":0.00035872736,"MEAN_MOTION_DOT":0.00010133,"MEAN_MOTION_DDOT":0}]
